[{"OBJECT_NAME":"PROBA-1","OBJECT_ID":"2001-049B","EPOCH":"2026-03-09T22:57:25.772256","MEAN_MOTION":15.07031721,"ECCENTRICITY":0.00568356,"INCLINATION":97.9638,"RA_OF_ASC_NODE":74.0417,"ARG_OF_PERICENTER":98.1776,"MEAN_ANOMALY":262.5903,"EPHEMERIS_TYPE":0,"CLASSIFICATION_TYPE":"U","NORAD_CAT_ID":26958,"ELEMENT_SET_NO":999,"REV_AT_EPOCH":32867,"BSTAR":0.00028513173,"MEAN_MOTION_DOT":4.362e-5,"MEAN_MOTION_DDOT":0},{"OBJECT_NAME":"STARLINK-3057","OBJECT_ID":"2021-082K","EPOCH":"2026-03-09T21:07:46.077024","MEAN_MOTION":14.98332376,"ECCENTRICITY":0.00026723,"INCLINATION":69.9986,"RA_OF_ASC_NODE":253.9616,"ARG_OF_PERICENTER":269.0716,"MEAN_ANOMALY":91.0136,"EPHEMERIS_TYPE":0,"CLASSIFICATION_TYPE":"U","NORAD_CAT_ID":49139,"ELEMENT_SET_NO":999,"REV_AT_EPOCH":24699,"BSTAR":1.7534562e-5,"MEAN_MOTION_DOT":1.16e-6,"MEAN_MOTION_DDOT":0}]
